stk.v.11.0

# WrittenBy    STK_v11.3.0

BEGIN Ephemeris

    NumberOfEphemerisPoints		 5761

    ScenarioEpoch		 8 May 2017 03:51:42.766000

# Epoch in JDate format: 2457881.66091164351852
# Epoch in YYDDD format:   17128.16091164351852


    InterpolationMethod		 Lagrange

    InterpolationSamplesM1		 7

    CentralBody		 Earth

    CoordinateSystem		 ICRF

# Time of first point: 11 May 2017 03:51:42.766000000 UTCG = 2457884.66091164351852 JDate = 17131.16091164351852 YYDDD

    EphemerisTimePosVel		

5.0076000000000000e+05 -3.9926018869634353e+07 1.3554956240026576e+07 -2.8515302719505766e+04 -9.8831375176724362e+02 -2.9115511260018161e+03 -1.2051348318868231e+00
5.0088000000000000e+05 -4.0043086419153251e+07 1.3205055604993206e+07 -2.8658825535357777e+04 -9.6279961791852327e+02 -2.9200889146764762e+03 -1.1868968314388006e+00
5.0100000000000000e+05 -4.0157087827692002e+07 1.2854143843860572e+07 -2.8800154322812057e+04 -9.3721172818870309e+02 -2.9284031200131431e+03 -1.1685679252476173e+00
5.0112000000000000e+05 -4.0268014362049766e+07 1.2502247825037973e+07 -2.8939278257314469e+04 -9.1155204192335771e+02 -2.9364931047241316e+03 -1.1501495167167934e+00
5.0124000000000000e+05 -4.0375857524479255e+07 1.2149394492379397e+07 -2.9076186683132160e+04 -8.8582252397785260e+02 -2.9443582486936994e+03 -1.1316430161130127e+00
5.0136000000000000e+05 -4.0480609053338893e+07 1.1795610863120008e+07 -2.9210869114170680e+04 -8.6002514456681877e+02 -2.9519979490257501e+03 -1.1130498404581122e+00
5.0148000000000000e+05 -4.0582260923726857e+07 1.1440924025807003e+07 -2.9343315234778082e+04 -8.3416187911321185e+02 -2.9594116200902176e+03 -1.0943714134205536e+00
5.0160000000000000e+05 -4.0680805348097019e+07 1.1085361138224959e+07 -2.9473514900535974e+04 -8.0823470809696926e+02 -2.9665986935681249e+03 -1.0756091652063811e+00
5.0172000000000000e+05 -4.0776234776856691e+07 1.0728949425315879e+07 -2.9601458139037484e+04 -7.8224561690327607e+02 -2.9735586184953172e+03 -1.0567645324496755e+00
5.0184000000000000e+05 -4.0868541898946099e+07 1.0371716177094042e+07 -2.9727135150652000e+04 -7.5619659567045153e+02 -2.9802908613048644e+03 -1.0378389581025136e+00
5.0196000000000000e+05 -4.0957719642399654e+07 1.0013688746555869e+07 -2.9850536309276722e+04 -7.3008963913746743e+02 -2.9867949058681293e+03 -1.0188338913244397e+00
5.0208000000000000e+05 -4.1043761174888827e+07 9.6548945475849248e+06 -2.9971652163074890e+04 -7.0392674649111098e+02 -2.9930702535344981e+03 -9.9975078737145995e-01
5.0220000000000000e+05 -4.1126659904246725e+07 9.2953610528522395e+06 -3.0090473435200685e+04 -6.7770992121280324e+02 -2.9991164231697712e+03 -9.8059110748456479e-01
5.0232000000000000e+05 -4.1206409478974216e+07 8.9351157917121053e+06 -3.0206991024510713e+04 -6.5144117092508452e+02 -3.0049329511932124e+03 -9.6135631877779226e-01
5.0244000000000000e+05 -4.1283003788727656e+07 8.5741863480935022e+06 -3.0321196006262020e+04 -6.2512250723777993e+02 -3.0105193916132484e+03 -9.4204789412583656e-01
5.0256000000000000e+05 -4.1356436964788109e+07 8.2126003583873250e+06 -3.0433079632796624e+04 -5.9875594559385536e+02 -3.0158753160618230e+03 -9.2266731205121355e-01
5.0268000000000000e+05 -4.1426703380512081e+07 7.8503855093295686e+06 -3.0542633334212456e+04 -5.7234350511497610e+02 -3.0210003138273964e+03 -9.0321605661099036e-01
5.0280000000000000e+05 -4.1493797651763640e+07 7.4875695358806299e+06 -3.0649848719020680e+04 -5.4588720844678119e+02 -3.0258939918865935e+03 -8.8369561728308776e-01
5.0292000000000000e+05 -4.1557714637328036e+07 7.1241802191009009e+06 -3.0754717574789356e+04 -5.1938908160388360e+02 -3.0305559749344943e+03 -8.6410748885216537e-01
5.0304000000000000e+05 -4.1618449439306647e+07 6.7602453840228049e+06 -3.0857231868773386e+04 -4.9285115381460940e+02 -3.0349859054135623e+03 -8.4445317129509667e-01
5.0316000000000000e+05 -4.1675997403493285e+07 6.3957928975194376e+06 -3.0957383748530683e+04 -4.6627545736548740e+02 -3.0391834435412161e+03 -8.2473416966604363e-01
5.0328000000000000e+05 -4.1730354119731866e+07 6.0308506661699936e+06 -3.1055165542524541e+04 -4.3966402744550095e+02 -3.0431482673360360e+03 -8.0495199398113981e-01
5.0340000000000000e+05 -4.1781515422255330e+07 5.6654466341221184e+06 -3.1150569760712115e+04 -4.1301890199011461e+02 -3.0468800726426025e+03 -7.8510815910279053e-01
5.0352000000000000e+05 -4.1829477390005857e+07 5.2996087809513658e+06 -3.1243589095119027e+04 -3.8634212152508684e+02 -3.0503785731549715e+03 -7.6520418462359896e-01
5.0364000000000000e+05 -4.1874236346936315e+07 4.9333651195179243e+06 -3.1334216420400004e+04 -3.5963572901008149e+02 -3.0536435004387754e+03 -7.4524159474992713e-01
5.0376000000000000e+05 -4.1915788862292930e+07 4.5667436938207671e+06 -3.1422444794385527e+04 -3.3290176968208954e+02 -3.0566746039519580e+03 -7.2522191818510084e-01
5.0388000000000000e+05 -4.1954131750879183e+07 4.1997725768494010e+06 -3.1508267458614428e+04 -3.0614229089867314e+02 -3.0594716510641319e+03 -7.0514668801226732e-01
5.0400000000000000e+05 -4.1989262073300838e+07 3.8324798684333735e+06 -3.1591677838852444e+04 -2.7935934198104468e+02 -3.0620344270745654e+03 -6.8501744157691480e-01
5.0412000000000000e+05 -4.2021177136192173e+07 3.4648936930897031e+06 -3.1672669545596618e+04 -2.5255497405699211e+02 -3.0643627352287899e+03 -6.6483572036906335e-01
5.0424000000000000e+05 -4.2049874492423356e+07 3.0970421978683989e+06 -3.1751236374565564e+04 -2.2573123990366295e+02 -3.0664563967338349e+03 -6.4460306990513461e-01
5.0436000000000000e+05 -4.2075351941288874e+07 2.7289535501962388e+06 -3.1827372307175530e+04 -1.9889019379021929e+02 -3.0683152507720806e+03 -6.2432103960951169e-01
5.0448000000000000e+05 -4.2097607528677180e+07 2.3606559357189620e+06 -3.1901071511002228e+04 -1.7203389132037549e+02 -3.0699391545137323e+03 -6.0399118269579621e-01
5.0460000000000000e+05 -4.2116639547221377e+07 1.9921775561420533e+06 -3.1972328340228414e+04 -1.4516438927483102e+02 -3.0713279831279151e+03 -5.8361505604777331e-01
5.0472000000000000e+05 -4.2132446536430970e+07 1.6235466270702737e+06 -3.2041137336077136e+04 -1.1828374545361027e+02 -3.0724816297923858e+03 -5.6319422010009224e-01
5.0484000000000000e+05 -4.2145027282804742e+07 1.2547913758461124e+06 -3.2107493227230676e+04 -9.1394018518321673e+01 -3.0734000057018661e+03 -5.4273023871867365e-01
5.0496000000000000e+05 -4.2154380819924690e+07 8.8594003938731982e+05 -3.2171390930235109e+04 -6.4497267834348349e+01 -3.0740830400749878e+03 -5.2222467908085035e-01
5.0508000000000000e+05 -4.2160506428530976e+07 5.1702086202369060e+05 -3.2232825549890476e+04 -3.7595553312982013e+01 -3.0745306801598590e+03 -5.0167911155525280e-01
5.0520000000000000e+05 -4.2163403636577979e+07 1.4806209333326199e+05 -3.2291792379626510e+04 -1.0690935253512761e+01 -3.0747428912382434e+03 -4.8109510958144763e-01
5.0532000000000000e+05 -4.2163072219271377e+07 -2.2090801402190636e+05 -3.2348286901863918e+04 1.6214525814713390e+01 -3.0747196566283592e+03 -4.6047424954933852e-01
5.0544000000000000e+05 -4.2159512199086271e+07 -5.8986120646020595e+05 -3.2402304788361183e+04 4.3118769290256999e+01 -3.0744609776862885e+03 -4.3981811067833892e-01
5.0556000000000000e+05 -4.2152723845766373e+07 -9.5876923164503812e+05 -3.2453841900546831e+04 7.0019734657555546e+01 -3.0739668738060059e+03 -4.1912827489632565e-01
5.0568000000000000e+05 -4.2142707676304191e+07 -1.3276038406492940e+06 -3.2502894289837175e+04 9.6915361644889416e+01 -3.0732373824180218e+03 -3.9840632671838300e-01
5.0580000000000000e+05 -4.2129464454902336e+07 -1.6963367901195877e+06 -3.2549458197939512e+04 1.2380359038233158e+02 -3.0722725589866395e+03 -3.7765385312534627e-01
5.0592000000000000e+05 -4.2112995192915790e+07 -2.0649398444400779e+06 -3.2593530057140688e+04 1.5068236155966852e+02 -3.0710724770058287e+03 -3.5687244344215452e-01
5.0604000000000000e+05 -4.2093301148775294e+07 -2.4333847778957114e+06 -3.2635106490581107e+04 1.7754961658428047e+02 -3.0696372279937164e+03 -3.3606368921602159e-01
5.0616000000000000e+05 -4.2070383827891745e+07 -2.8016433768347213e+06 -3.2674184312514073e+04 2.0440329773896866e+02 -3.0679669214856908e+03 -3.1522918409443468e-01
5.0628000000000000e+05 -4.2044244982541688e+07 -3.1696874418302164e+06 -3.2710760528550501e+04 2.3124134833971758e+02 -3.0660616850261258e+03 -2.9437052370299038e-01
5.0640000000000000e+05 -4.2014886611733891e+07 -3.5374887898406936e+06 -3.2744832335888943e+04 2.5806171289337988e+02 -3.0639216641587191e+03 -2.7348930552307688e-01
5.0652000000000000e+05 -4.1982310961056955e+07 -3.9050192563693067e+06 -3.2776397123530944e+04 2.8486233725527222e+02 -3.0615470224154510e+03 -2.5258712876941231e-01
5.0664000000000000e+05 -4.1946520522508062e+07 -4.2722506976217311e+06 -3.2805452472481687e+04 3.1164116878666914e+02 -3.0589379413041606e+03 -2.3166559426744848e-01
5.0676000000000000e+05 -4.1907518034302816e+07 -4.6391549926624512e+06 -3.2831996155935914e+04 3.3839615651218378e+02 -3.0560946202947430e+03 -2.1072630433064918e-01
5.0688000000000000e+05 -4.1865306480666205e+07 -5.0057040455693090e+06 -3.2856026139449132e+04 3.6512525127702253e+02 -3.0530172768039656e+03 -1.8977086263765280e-01
5.0700000000000000e+05 -4.1819889091604687e+07 -5.3718697875861488e+06 -3.2877540581094043e+04 3.9182640590410205e+02 -3.0497061461789081e+03 -1.6880087410932876e-01
5.0712000000000000e+05 -4.1771269342659481e+07 -5.7376241792733967e+06 -3.2896537831602232e+04 4.1849757535101617e+02 -3.0461614816790234e+03 -1.4781794478573690e-01
5.0724000000000000e+05 -4.1719450954640947e+07 -6.1029392126563918e+06 -3.2913016434491095e+04 4.4513671686684074e+02 -3.0423835544568260e+03 -1.2682368170299971e-01
5.0736000000000000e+05 -4.1664437893344268e+07 -6.4677869133713366e+06 -3.2926975126175952e+04 4.7174179014876472e+02 -3.0383726535372052e+03 -1.0581969277009634e-01
5.0748000000000000e+05 -4.1606234369246215e+07 -6.8321393428086629e+06 -3.2938412836067422e+04 4.9831075749853449e+02 -3.0341290857953632e+03 -8.4807586645588545e-02
END Ephemeris
